NORAD_CAT_ID,OBJECT_NAME,OBJECT_TYPE,EPOCH,MEAN_MOTION,ECCENTRICITY,INCLINATION,RA_OF_ASC_NODE,ARG_OF_PERICENTER,MEAN_ANOMALY,BSTAR,MEAN_MOTION_DOT,MEAN_MOTION_DDOT,TLE_LINE0,TLE_LINE1,TLE_LINE2,SEMIMAJOR_AXIS,PERIOD,APOGEE,PERIGEE,DECAYED
53563.0,STARLINK-4561,PAYLOAD,2024-02-21 13:53:18,15.08842414,0.0001438,53.2172,168.2583,92.2461,267.8696,6.3723e-05,7.26e-06,0.0,0 STARLINK-4561,1 53563U 22101AN  24052.57868554  .00000726  00000-0  63723-4 0  9999,2 53563  53.2172 168.2583 0001438  92.2461 267.8696 15.08842414 83650,6917.873,95.437,540.733,538.743,0.0
53563.0,STARLINK-4561,PAYLOAD,2024-02-22 13:44:05,15.08847674,0.0001412,53.2163,163.7976,95.1085,265.0068,-2.5622e-05,-6.96e-06,0.0,0 STARLINK-4561,1 53563U 22101AN  24053.57228470 -.00000696  00000-0 -25622-4 0  9991,2 53563  53.2163 163.7976 0001412  95.1085 265.0068 15.08847674 83805,6917.857,95.437,540.699,538.745,0.0
53563.0,STARLINK-4561,PAYLOAD,2024-02-23 11:59:30,15.08831676,0.0001617,53.217,159.6349,100.5992,259.5182,-5.2746e-06,-3.72e-06,0.0,0 STARLINK-4561,1 53563U 22101AN  24054.49965518 -.00000372  00000-0 -52746-5 0  9993,2 53563  53.2170 159.6349 0001617 100.5992 259.5182 15.08831676 83941,6917.906,95.438,540.889,538.652,0.0
53563.0,STARLINK-4561,PAYLOAD,2024-02-23 13:34:53,15.08834928,0.000149,53.2171,159.3372,88.752,271.3643,2.7075e-05,1.43e-06,0.0,0 STARLINK-4561,1 53563U 22101AN  24054.56589328  .00000143  00000-0  27075-4 0  9992,2 53563  53.2171 159.3372 0001490  88.7520 271.3643 15.08834928 83956,6917.896,95.438,540.792,538.73,0.0
53563.0,STARLINK-4561,PAYLOAD,2024-02-24 11:50:16,15.08845445,0.0001404,53.2169,155.1741,88.761,271.3543,9.4116e-05,1.21e-05,0.0,0 STARLINK-4561,1 53563U 22101AN  24055.49324646  .00001210  00000-0  94116-4 0  9991,2 53563  53.2169 155.1741 0001404  88.7610 271.3543 15.08845445 84093,6917.864,95.437,540.7,538.757,0.0
53563.0,STARLINK-4561,PAYLOAD,2024-02-24 13:25:39,15.08847903,0.0001417,53.217,154.8773,88.5721,271.5433,0.00012423,1.69e-05,0.0,0 STARLINK-4561,1 53563U 22101AN  24055.55948419  .00001690  00000-0  12423-3 0  9990,2 53563  53.2170 154.8773 0001417  88.5721 271.5433 15.08847903 84104,6917.856,95.437,540.701,538.741,0.0
53563.0,STARLINK-4561,PAYLOAD,2024-02-25 11:41:04,15.0883891,0.0001482,53.2174,150.714,81.3368,278.7792,8.774e-05,1.109e-05,0.0,0 STARLINK-4561,1 53563U 22101AN  24056.48685361  .00001109  00000-0  87740-4 0  9997,2 53563  53.2174 150.7140 0001482  81.3368 278.7792 15.08838910 84241,6917.884,95.438,540.774,538.723,0.0
53563.0,STARLINK-4561,PAYLOAD,2024-02-25 13:16:27,15.08838886,0.000142,53.2169,150.4181,79.5811,280.5342,0.00012599,1.718e-05,0.0,0 STARLINK-4561,1 53563U 22101AN  24056.55309286  .00001718  00000-0  12599-3 0  9999,2 53563  53.2169 150.4181 0001420  79.5811 280.5342 15.08838886 84256,6917.884,95.438,540.731,538.766,0.0
53563.0,STARLINK-4561,PAYLOAD,2024-02-25 22:48:46,15.08839999,0.0001511,53.2166,148.6338,87.1804,272.9361,5.1098e-05,5.25e-06,0.0,0 STARLINK-4561,1 53563U 22101AN  24056.95053384  .00000525  00000-0  51098-4 0  9991,2 53563  53.2166 148.6338 0001511  87.1804 272.9361 15.08839999 84313,6917.88,95.438,540.791,538.7,0.0
53563.0,STARLINK-4561,PAYLOAD,2024-02-26 11:31:50,15.08850336,0.0001525,53.2176,146.2539,92.3782,267.7385,4.141e-05,3.71e-06,0.0,0 STARLINK-4561,1 53563U 22101AN  24057.48044542  .00000371  00000-0  41410-4 0  9992,2 53563  53.2176 146.2539 0001525  92.3782 267.7385 15.08850336 84393,6917.849,95.437,540.769,538.659,0.0
53563.0,STARLINK-4561,PAYLOAD,2024-02-26 16:17:59,15.08849565,0.0001533,53.2173,145.36,80.627,279.4895,2.889e-05,1.72e-06,0.0,0 STARLINK-4561,1 53563U 22101AN  24057.67916556  .00000172  00000-0  28890-4 0  9992,2 53563  53.2173 145.3600 0001533  80.6270 279.4895 15.08849565 84422,6917.851,95.437,540.777,538.656,0.0
53563.0,STARLINK-4561,PAYLOAD,2024-02-27 11:22:38,15.08834294,0.0001795,53.2177,141.7857,113.9339,246.1841,-3.3671e-05,-8.24e-06,0.0,0 STARLINK-4561,1 53563U 22101AN  24058.47405632 -.00000824  00000-0 -33671-4 0  9998,2 53563  53.2177 141.7857 0001795 113.9339 246.1841 15.08834294 84544,6917.898,95.438,541.005,538.521,0.0
53563.0,STARLINK-4561,PAYLOAD,2024-02-27 12:58:01,15.08833424,0.000157,53.217,141.4969,78.8696,281.2472,-3.6345e-05,-8.66e-06,0.0,0 STARLINK-4561,1 53563U 22101AN  24058.54029999 -.00000866  00000-0 -36345-4 0  9991,2 53563  53.2170 141.4969 0001570  78.8696 281.2472 15.08833424 84559,6917.9,95.438,540.852,538.679,0.0
53563.0,STARLINK-4561,PAYLOAD,2024-02-27 22:30:20,15.08834897,0.0001497,53.2163,139.7122,84.5854,275.5309,-3.046e-05,-7.73e-06,0.0,0 STARLINK-4561,1 53563U 22101AN  24058.93773920 -.00000773  00000-0 -30460-4 0  9993,2 53563  53.2163 139.7122 0001497  84.5854 275.5309 15.08834897 84617,6917.896,95.438,540.797,538.725,0.0
53563.0,STARLINK-4561,PAYLOAD,2024-02-28 12:48:48,15.08840619,0.0001485,53.2168,137.0364,88.9867,271.1295,-2.0276e-05,-6.11e-06,0.0,0 STARLINK-4561,1 53563U 22101AN  24059.53389766 -.00000611  00000-0 -20276-4 0  9996,2 53563  53.2168 137.0364 0001485  88.9867 271.1295 15.08840619 84705,6917.878,95.438,540.771,538.716,0.0
53563.0,STARLINK-4561,PAYLOAD,2024-02-29 14:14:58,15.08848365,0.0001544,53.2165,132.2777,81.3202,278.7965,0.00020163,2.923e-05,0.0,0 STARLINK-4561,1 53563U 22101AN  24060.59372755  .00002923  00000-0  20163-3 0  9994,2 53563  53.2165 132.2777 0001544  81.3202 278.7965 15.08848365 84863,6917.855,95.437,540.788,538.652,0.0
53563.0,STARLINK-4561,PAYLOAD,2024-02-29 22:11:54,15.08837506,0.0001513,53.2175,130.7899,83.7536,276.3628,0.00010375,1.363e-05,0.0,0 STARLINK-4561,1 53563U 22101AN  24060.92493665  .00001363  00000-0  10375-3 0  9996,2 53563  53.2175 130.7899 0001513  83.7536 276.3628 15.08837506 84915,6917.888,95.438,540.8,538.706,0.0
53563.0,STARLINK-4561,PAYLOAD,2024-03-01 14:05:45,15.0885105,0.0001546,53.2178,127.8159,90.3915,269.7254,0.00012176,1.651e-05,0.0,0 STARLINK-4561,1 53563U 22101AN  24061.58732893  .00001651  00000-0  12176-3 0  9999,2 53563  53.2178 127.8159 0001546  90.3915 269.7254 15.08851050 85018,6917.847,95.437,540.781,538.642,0.0
53563.0,STARLINK-4561,PAYLOAD,2024-03-02 10:45:46,15.08850621,0.0001628,53.2175,123.9477,97.7172,262.4005,-9.8157e-06,-4.44e-06,0.0,0 STARLINK-4561,1 53563U 22101AN  24062.44845013 -.00000444  00000-0 -98157-5 0  9990,2 53563  53.2175 123.9477 0001628  97.7172 262.4005 15.08850621 85143,6917.848,95.437,540.839,538.587,0.0
53563.0,STARLINK-4561,PAYLOAD,2024-03-03 10:36:33,15.08834137,0.0001474,53.2173,119.4908,83.5494,276.5665,3.9698e-05,3.44e-06,0.0,0 STARLINK-4561,1 53563U 22101AN  24063.44205962  .00000344  00000-0  39698-4 0  9995,2 53563  53.2173 119.4908 0001474  83.5494 276.5665 15.08834137 85297,6917.898,95.438,540.783,538.744,0.0
53563.0,STARLINK-4561,PAYLOAD,2024-03-03 13:47:20,15.08838525,0.0001457,53.2168,118.892,81.2341,278.8816,4.4757e-06,-2.17e-06,0.0,0 STARLINK-4561,1 53563U 22101AN  24063.57453789 -.00000217  00000-0  44757-5 0  9994,2 53563  53.2168 118.8920 0001457  81.2341 278.8816 15.08838525 85316,6917.885,95.438,540.758,538.742,0.0
53563.0,STARLINK-4561,PAYLOAD,2024-03-04 10:27:20,15.08841386,0.0001611,53.2169,115.032,98.1084,262.0091,7.6267e-05,9.26e-06,0.0,0 STARLINK-4561,1 53563U 22101AN  24064.43565363  .00000926  00000-0  76267-4 0  9998,2 53563  53.2169 115.0320 0001611  98.1084 262.0091 15.08841386 85446,6917.876,95.437,540.856,538.627,0.0
53563.0,STARLINK-4561,PAYLOAD,2024-03-04 19:59:38,15.08857274,0.0001637,53.217,113.2467,90.89,269.2279,0.00010393,1.367e-05,0.0,0 STARLINK-4561,1 53563U 22101AN  24064.83307979  .00001367  00000-0  10393-3 0  9996,2 53563  53.2170 113.2467 0001637  90.8900 269.2279 15.08857274 85501,6917.828,95.436,540.825,538.56,0.0
53563.0,STARLINK-4561,PAYLOAD,2024-03-05 11:53:32,15.08817174,0.0001626,53.218,110.2705,88.829,271.2889,-0.00012525,-2.28e-05,0.0,0 STARLINK-4561,1 53563U 22101AN  24065.49551951 -.00002280  00000-0 -12525-3 0  9996,2 53563  53.2180 110.2705 0001626  88.8290 271.2889 15.08817174 85607,6917.95,95.439,540.94,538.69,0.0
53563.0,STARLINK-4561,PAYLOAD,2024-03-05 19:50:27,15.08829307,0.0001495,53.2171,108.7844,92.165,267.9513,-3.4817e-05,-8.42e-06,0.0,0 STARLINK-4561,1 53563U 22101AN  24065.82671253 -.00000842  00000-0 -34817-4 0  9992,2 53563  53.2171 108.7844 0001495  92.1650 267.9513 15.08829307 85657,6917.913,95.438,540.812,538.744,0.0
53563.0,STARLINK-4561,PAYLOAD,2024-03-06 11:44:18,15.08841034,0.0001489,53.2157,105.8115,98.9691,261.147,0.00029131,4.351e-05,0.0,0 STARLINK-4561,1 53563U 22101AN  24066.48910624  .00004351  00000-0  29131-3 0  9992,2 53563  53.2157 105.8115 0001489  98.9691 261.1470 15.08841034 85752,6917.877,95.437,540.772,538.712,0.0
53563.0,STARLINK-4561,PAYLOAD,2024-03-07 11:35:06,15.08826367,0.0001437,53.2152,101.3504,92.0374,268.0783,-0.00037308,-6.218e-05,0.0,0 STARLINK-4561,1 53563U 22101AN  24067.48271451 -.00006218  00000-0 -37308-3 0  9992,2 53563  53.2152 101.3504 0001437  92.0374 268.0783 15.08826367 85908,6917.922,95.438,540.781,538.793,0.0
53563.0,STARLINK-4561,PAYLOAD,2024-03-08 11:25:54,15.08842421,0.0001496,53.2153,96.8893,92.9432,267.1731,0.00055472,8.552e-05,0.0,0 STARLINK-4561,1 53563U 22101AN  24068.47631996  .00008552  00000-0  55472-3 0  9999,2 53563  53.2153  96.8893 0001496  92.9432 267.1731 15.08842421 86056,6917.873,95.437,540.773,538.703,0.0
53563.0,STARLINK-4561,PAYLOAD,2024-03-08 19:22:49,15.08849517,0.0001467,53.2151,95.4026,91.7238,268.3922,0.00082518,0.00012873,0.0,0 STARLINK-4561,1 53563U 22101AN  24068.80751978  .00012873  00000-0  82518-3 0  9991,2 53563  53.2151  95.4026 0001467  91.7238 268.3922 15.08849517 86100,6917.851,95.437,540.731,538.701,0.0
53563.0,STARLINK-4561,PAYLOAD,2024-03-09 08:05:54,15.08861316,0.0001545,53.2154,93.0236,89.808,270.3089,0.00087966,0.00013748,0.0,0 STARLINK-4561,1 53563U 22101AN  24069.33743589  .00013748  00000-0  87966-3 0  9993,2 53563  53.2154  93.0236 0001545  89.8080 270.3089 15.08861316 86186,6917.815,95.436,540.749,538.611,0.0
